QIANFAN-89              
1 63175U 25046S   25267.25712373  .00000230  00000+0  33691-3 0  9990
2 63175  88.9832 328.2539 0015884   3.4602 356.6656 13.50968394 36672
QIANFAN-90              
1 63176U 25046T   25267.28592212  .00000217  00000+0  31724-3 0  9992
2 63176  88.9832 328.2233 0012796   3.3415 356.7819 13.50980645 36691
